      2.10          N: GNSS NAV DATA                        RINEX VERSION / TYPE
fic2rin                                 03/20/2021 00:17:24 PGM / RUN BY / DATE
                                                            END OF HEADER
 8 21  3 20  0  0  0.0-1.436984166503e-05-1.477928890381e-12 0.000000000000e+00
    8.900000000000e+01-2.968750000000e+01 4.524117019062e-09-2.306541317024e+00
   -1.605600118637e-06 6.297101383097e-03 4.893168807030e-06 5.153572202682e+03
    5.184000000000e+05-1.173466444016e-07 3.022590240936e+00-1.545995473862e-07
    9.681128279109e-01 2.924062500000e+02 3.207990631401e-03-8.138196131392e-09
   -7.393165097859e-11 1.000000000000e+00 2.149000000000e+03 0.000000000000e+00
    3.400000000000e+00 0.000000000000e+00 5.122274160385e-09 8.900000000000e+01
    5.112000000000e+05 4.000000000000e+00
 6 21  3 20  0  0  0.0 1.771375536919e-06 2.046363078989e-12 0.000000000000e+00
    5.100000000000e+01-6.068750000000e+01 3.979094316679e-09 2.042987059023e+00
   -2.972781658173e-06 2.329989336431e-03 8.262693881989e-06 5.153731998444e+03
    5.184000000000e+05 4.470348358154e-08-2.195614234112e+00-5.029141902924e-08
    9.830712866936e-01 2.271250000000e+02-1.027276228167e+00-7.774609557980e-09
   -2.714398779890e-11 1.000000000000e+00 2.149000000000e+03 0.000000000000e+00
    2.400000000000e+00 0.000000000000e+00 3.725290298462e-09 5.100000000000e+01
    5.112000000000e+05 4.000000000000e+00
13 21  3 20  0  0  0.0 1.098290085793e-04 4.433786671143e-12 0.000000000000e+00
    6.500000000000e+01-1.121875000000e+01 4.309108063076e-09-2.953350949984e+00
   -5.196779966354e-07 4.905111971311e-03 7.892027497292e-06 5.153675382614e+03
    5.184000000000e+05 3.725290298462e-09 2.868577398620e-02 2.980232238770e-08
    9.684713101346e-01 2.314062500000e+02 1.006078656380e+00-7.737465153624e-09
   -1.635782422618e-10 1.000000000000e+00 2.149000000000e+03 0.000000000000e+00
    2.400000000000e+00 0.000000000000e+00-1.117587089539e-08 6.500000000000e+01
    5.112000000000e+05 4.000000000000e+00
 7 21  3 20  0  0  0.0 9.541772305965e-05 1.227817847393e-11 0.000000000000e+00
    6.800000000000e+01 4.775000000000e+01 4.619478134092e-09 1.155786028384e+00
    2.579763531685e-06 1.459095790051e-02 9.462237358093e-06 5.153597997665e+03
    5.184000000000e+05-1.713633537292e-07 9.536367561244e-01 1.080334186554e-07
    9.519913068306e-01 1.948437500000e+02-2.347499152362e+00-8.172126116141e-09
   -2.471531520637e-10 1.000000000000e+00 2.149000000000e+03 0.000000000000e+00
    2.400000000000e+00 0.000000000000e+00-1.117587089539e-08 6.800000000000e+01
    5.112000000000e+05 4.000000000000e+00
27 21  3 20  0  0  0.0-9.716441854835e-05-7.048583938740e-12 0.000000000000e+00
    8.000000000000e+01-3.003125000000e+01 4.289107229961e-09-2.349246346146e+00
   -1.747161149979e-06 9.256125078537e-03 4.906207323074e-06 5.153681503296e+03
    5.184000000000e+05 1.341104507446e-07 3.039265938791e+00-1.806765794754e-07
    9.766748778118e-01 2.926875000000e+02 5.903271090822e-01-8.013905239892e-09
    2.500104139373e-12 1.000000000000e+00 2.149000000000e+03 0.000000000000e+00
    2.400000000000e+00 0.000000000000e+00 1.862645149231e-09 8.000000000000e+01
    5.112000000000e+05 4.000000000000e+00
30 21  3 20  0  0  0.0-4.008724354208e-04-5.456968210638e-12 0.000000000000e+00
    6.600000000000e+01 5.071875000000e+01 4.875203071777e-09 1.057161924135e+00
    2.706423401833e-06 4.976084455848e-03 9.071081876755e-06 5.153734922409e+03
    5.184000000000e+05-3.539025783539e-08 9.718294663810e-01 8.381903171539e-08
    9.372090784743e-01 1.922812500000e+02-2.832455195105e+00-8.153553913962e-09
   -1.621496113250e-10 1.000000000000e+00 2.149000000000e+03 0.000000000000e+00
    2.400000000000e+00 0.000000000000e+00 3.725290298462e-09 6.600000000000e+01
    5.112000000000e+05 4.000000000000e+00
19 21  3 20  0  0  0.0-2.411799505353e-05 5.002220859751e-12 0.000000000000e+00
    8.000000000000e+01-3.675000000000e+01 4.288035756758e-09 1.483568338290e-01
   -1.832842826843e-06 9.097891161218e-03 5.226582288742e-06 5.153624965668e+03
    5.184000000000e+05-1.117587089539e-07-3.138465078102e+00-3.725290298462e-08
    9.813141041056e-01 2.922812500000e+02 1.795135395029e+00-8.232842930954e-09
   -1.217907873609e-10 1.000000000000e+00 2.149000000000e+03 0.000000000000e+00
    2.400000000000e+00 0.000000000000e+00-1.583248376846e-08 8.000000000000e+01
    5.112000000000e+05 4.000000000000e+00
22 21  3 20  0  0  0.0-6.568129174411e-04 8.185452315956e-12 0.000000000000e+00
    8.600000000000e+01-7.781250000000e+00 5.182715880919e-09 2.941527826007e+00
   -4.097819328308e-07 7.045649341308e-03 7.148832082748e-06 5.153579942703e+03
    5.184000000000e+05 3.725290298462e-08-1.245946679023e+00 1.024454832077e-07
    9.337844706370e-01 2.249375000000e+02-1.014311476567e+00-8.243557662980e-09
    1.789360248322e-10 1.000000000000e+00 2.149000000000e+03 0.000000000000e+00
    2.400000000000e+00 0.000000000000e+00-1.816079020500e-08 8.600000000000e+01
    5.112000000000e+05 4.000000000000e+00
24 21  3 20  0  0  0.0 8.330680429935e-07-5.684341886081e-13 0.000000000000e+00
    6.400000000000e+01 3.559375000000e+01 4.935919886590e-09 2.116442184369e+00
    1.782551407814e-06 1.100392849185e-02 9.592622518539e-06 5.153743330002e+03
    5.184000000000e+05-2.235174179077e-07 8.764916393606e-01-1.750886440277e-07
    9.354194074016e-01 1.798750000000e+02 7.373195830859e-01-8.160339910912e-09
   -1.496490906282e-10 1.000000000000e+00 2.149000000000e+03 0.000000000000e+00
    2.400000000000e+00 0.000000000000e+00 2.793967723846e-09 6.400000000000e+01
    5.112000000000e+05 4.000000000000e+00
32 21  3 20  0  0  0.0 2.144696190953e-05 5.684341886081e-13 0.000000000000e+00
    8.900000000000e+01-1.818750000000e+01 4.653765276575e-09-1.607862238282e+00
   -9.573996067047e-07 4.742088261992e-03 7.223337888718e-06 5.153644674301e+03
    5.184000000000e+05 1.061707735062e-07-1.090759897614e-01-1.136213541031e-07
    9.575712318740e-01 2.409375000000e+02-2.408305488619e+00-7.979618097409e-09
   -1.567922453121e-10 1.000000000000e+00 2.149000000000e+03 0.000000000000e+00
    2.400000000000e+00 0.000000000000e+00 4.656612873077e-10 8.900000000000e+01
    5.112000000000e+05 4.000000000000e+00
21 21  3 20  0  0  0.0 1.044743694365e-04 3.069544618484e-12 0.000000000000e+00
    8.500000000000e+01-3.596875000000e+01 4.476615040414e-09-2.151837163992e+00
   -1.482665538788e-06 2.424557134509e-02 8.253380656242e-06 5.153711032867e+03
    5.184000000000e+05 6.332993507385e-08-2.269230635936e+00 5.047768354416e-07
    9.564970754968e-01 2.134687500000e+02-1.169779663436e+00-7.744608308308e-09
    7.214586230761e-11 1.000000000000e+00 2.149000000000e+03 0.000000000000e+00
    2.400000000000e+00 0.000000000000e+00-1.024454832077e-08 8.500000000000e+01
    5.112000000000e+05 4.000000000000e+00
26 21  3 20  0  0  0.0 6.044562906027e-05 5.343281372916e-12 0.000000000000e+00
    4.800000000000e+01 6.303125000000e+01 4.978064499225e-09-5.575499306611e-01
    3.429129719734e-06 5.775736644864e-03 5.267560482025e-06 5.153775718689e+03
    5.184000000000e+05 8.381903171539e-08 1.950410824885e+00-3.725290298462e-09
    9.424595543662e-01 2.652500000000e+02 2.952604253190e-01-8.437494312648e-09
    1.296482575132e-10 1.000000000000e+00 2.149000000000e+03 0.000000000000e+00
    2.400000000000e+00 0.000000000000e+00 6.984919309616e-09 4.800000000000e+01
    5.112000000000e+05 4.000000000000e+00
28 21  3 20  0  0  0.0 5.996208637953e-04-5.798028723802e-12 0.000000000000e+00
    5.300000000000e+01 7.468750000000e+01 4.275892393796e-09-1.605099792518e+00
    4.282221198082e-06 1.778461865615e-02 5.077570676804e-06 5.153672105789e+03
    5.184000000000e+05-1.396983861923e-07 2.086251607496e+00 4.246830940247e-07
    9.733838139143e-01 2.929062500000e+02-1.347932541224e+00-8.098194465162e-09
    1.353627812603e-10 1.000000000000e+00 2.149000000000e+03 0.000000000000e+00
    2.400000000000e+00 0.000000000000e+00-1.117587089539e-08 5.300000000000e+01
    5.112000000000e+05 4.000000000000e+00
17 21  3 20  0  0  0.0 4.124962724745e-04 6.366462912410e-12 0.000000000000e+00
    6.600000000000e+01-3.815625000000e+01 4.146601294017e-09-2.384958281600e+00
   -1.763924956322e-06 1.341881591361e-02 4.606321454048e-06 5.153569643021e+03
    5.184000000000e+05 1.005828380585e-07 3.099510540838e+00 1.341104507446e-07
    9.828375928450e-01 2.990937500000e+02-1.572592409838e+00-7.824254483034e-09
   -2.321525272275e-11 1.000000000000e+00 2.149000000000e+03 0.000000000000e+00
    2.400000000000e+00 0.000000000000e+00-1.117587089539e-08 6.600000000000e+01
    5.112000000000e+05 4.000000000000e+00
23 21  3 20  0  0  0.0 1.170560717583e-04-1.136868377216e-12 0.000000000000e+00
    2.800000000000e+01-2.106250000000e+01 4.587691095749e-09 1.405996511730e+00
   -1.106411218643e-06 1.069998485036e-03 7.135793566704e-06 5.153645513535e+03
    5.184000000000e+05 4.470348358154e-08-1.174903128780e+00-2.607703208923e-08
    9.632010570531e-01 2.411875000000e+02 2.507209100923e+00-8.023548498715e-09
    1.246480492344e-10 1.000000000000e+00 2.149000000000e+03 0.000000000000e+00
    2.400000000000e+00 0.000000000000e+00-8.381903171539e-09 2.840000000000e+02
    5.112000000000e+05 4.000000000000e+00
14 21  3 20  0  0  0.0 9.973393753171e-05-5.684341886081e-13 0.000000000000e+00
    1.510000000000e+02 7.243750000000e+01 4.644836333220e-09 1.125345734321e+00
    3.764405846596e-06 4.915083991364e-04 5.025416612625e-06 5.153749454498e+03
    5.184000000000e+05 2.793967723846e-08 2.037813697932e+00-1.862645149231e-09
    9.576885432748e-01 2.821562500000e+02 2.333664271718e+00-8.235343035093e-09
    1.335769925893e-10 1.000000000000e+00 2.149000000000e+03 0.000000000000e+00
    2.400000000000e+00 0.000000000000e+00-7.916241884232e-09 6.630000000000e+02
    5.112000000000e+05 4.000000000000e+00
